[
    {
        "Altitude(m)": 555783.4951467413,
        "Argument of Periapsis(deg)": 0.006622991110713501,
        "Eccentricity": 0.0,
        "Inclination(deg)": 53.0,
        "Latitude(deg)": 34.24824892523687,
        "Longitude(deg)": 74.90630537194029,
        "Mean Anomaly(deg)": 44.637092867577586,
        "RAAN(deg)": 144.99014336852804,
        "Satellite Name": "Starlink Shell 1 640",
        "Satellite Number": 640,
        "Semi-Major Axis(m)": 6931778.249405717,
        "Time(s)": 190
    },
    {
        "Altitude(m)": 555864.6752833596,
        "Argument of Periapsis(deg)": 0.0069715695902247375,
        "Eccentricity": 0.0,
        "Inclination(deg)": 53.0,
        "Latitude(deg)": 34.679169600989574,
        "Longitude(deg)": 75.41799934903034,
        "Mean Anomaly(deg)": 45.263924071134305,
        "RAAN(deg)": 144.98962459845055,
        "Satellite Name": "Starlink Shell 1 640",
        "Satellite Number": 640,
        "Semi-Major Axis(m)": 6931778.249405717,
        "Time(s)": 200
    },
    {
        "Altitude(m)": 555946.3360760128,
        "Argument of Periapsis(deg)": 0.007320148069735974,
        "Eccentricity": 0.0,
        "Inclination(deg)": 53.0,
        "Latitude(deg)": 35.10752509526215,
        "Longitude(deg)": 75.93542923917157,
        "Mean Anomaly(deg)": 45.890755274691,
        "RAAN(deg)": 144.98910582837308,
        "Satellite Name": "Starlink Shell 1 640",
        "Satellite Number": 640,
        "Semi-Major Axis(m)": 6931778.249405717,
        "Time(s)": 210
    },
    {
        "Altitude(m)": 556028.4218026738,
        "Argument of Periapsis(deg)": 0.007668726549247212,
        "Eccentricity": 0.0,
        "Inclination(deg)": 53.0,
        "Latitude(deg)": 35.533248316311486,
        "Longitude(deg)": 76.45871238911326,
        "Mean Anomaly(deg)": 46.51758647824774,
        "RAAN(deg)": 144.98858705829562,
        "Satellite Name": "Starlink Shell 1 640",
        "Satellite Number": 640,
        "Semi-Major Axis(m)": 6931778.249405717,
        "Time(s)": 220
    },
    {
        "Altitude(m)": 556110.8767334574,
        "Argument of Periapsis(deg)": 0.00801730502875845,
        "Eccentricity": 0.0,
        "Inclination(deg)": 53.0,
        "Latitude(deg)": 35.9562706272018,
        "Longitude(deg)": 76.98796689528217,
        "Mean Anomaly(deg)": 47.14441768180444,
        "RAAN(deg)": 144.98806828821813,
        "Satellite Name": "Starlink Shell 1 640",
        "Satellite Number": 640,
        "Semi-Major Axis(m)": 6931778.249405717,
        "Time(s)": 230
    },
    {
        "Altitude(m)": 556193.6451593839,
        "Argument of Periapsis(deg)": 0.008365883508269684,
        "Eccentricity": 0.0,
        "Inclination(deg)": 53.0,
        "Latitude(deg)": 36.3765218144361,
        "Longitude(deg)": 77.5233120146266,
        "Mean Anomaly(deg)": 47.77124888536117,
        "RAAN(deg)": 144.98754951814067,
        "Satellite Name": "Starlink Shell 1 640",
        "Satellite Number": 640,
        "Semi-Major Axis(m)": 6931778.249405717,
        "Time(s)": 240
    },
    {
        "Altitude(m)": 556276.6714210727,
        "Argument of Periapsis(deg)": 0.008714461987780921,
        "Eccentricity": 0.0,
        "Inclination(deg)": 53.0,
        "Latitude(deg)": 36.79393005725721,
        "Longitude(deg)": 78.06486705291655,
        "Mean Anomaly(deg)": 48.39808008891786,
        "RAAN(deg)": 144.9870307480632,
        "Satellite Name": "Starlink Shell 1 640",
        "Satellite Number": 640,
        "Semi-Major Axis(m)": 6931778.249405717,
        "Time(s)": 250
    },
    {
        "Altitude(m)": 556359.899937401,
        "Argument of Periapsis(deg)": 0.009063040467292158,
        "Eccentricity": 0.0,
        "Inclination(deg)": 53.0,
        "Latitude(deg)": 37.20842189776471,
        "Longitude(deg)": 78.61275175568095,
        "Mean Anomaly(deg)": 49.024911292474584,
        "RAAN(deg)": 144.9865119779857,
        "Satellite Name": "Starlink Shell 1 640",
        "Satellite Number": 640,
        "Semi-Major Axis(m)": 6931778.249405717,
        "Time(s)": 260
    },
    {
        "Altitude(m)": 556443.275234029,
        "Argument of Periapsis(deg)": 0.009411618946803396,
        "Eccentricity": 0.0,
        "Inclination(deg)": 53.0,
        "Latitude(deg)": 37.61992221200353,
        "Longitude(deg)": 79.16708668832221,
        "Mean Anomaly(deg)": 49.651742496031304,
        "RAAN(deg)": 144.98599320790825,
        "Satellite Name": "Starlink Shell 1 640",
        "Satellite Number": 640,
        "Semi-Major Axis(m)": 6931778.249405717,
        "Time(s)": 270
    },
    {
        "Altitude(m)": 556526.7419718712,
        "Argument of Periapsis(deg)": 0.009760197426314633,
        "Eccentricity": 0.0,
        "Inclination(deg)": 53.0,
        "Latitude(deg)": 38.02835418219265,
        "Longitude(deg)": 79.72799209193678,
        "Mean Anomaly(deg)": 50.27857369958802,
        "RAAN(deg)": 144.9854744378308,
        "Satellite Name": "Starlink Shell 1 640",
        "Satellite Number": 640,
        "Semi-Major Axis(m)": 6931778.249405717,
        "Time(s)": 280
    },
    {
        "Altitude(m)": 556610.2449754231,
        "Argument of Periapsis(deg)": 0.01010877590582587,
        "Eccentricity": 0.0,
        "Inclination(deg)": 53.0,
        "Latitude(deg)": 38.433639270278334,
        "Longitude(deg)": 80.29558823998539,
        "Mean Anomaly(deg)": 50.90540490314472,
        "RAAN(deg)": 144.9849556677533,
        "Satellite Name": "Starlink Shell 1 640",
        "Satellite Number": 640,
        "Semi-Major Axis(m)": 6931778.249405717,
        "Time(s)": 290
    },
    {
        "Altitude(m)": 556693.7292609896,
        "Argument of Periapsis(deg)": 0.010457354385337106,
        "Eccentricity": 0.0,
        "Inclination(deg)": 53.0,
        "Latitude(deg)": 38.83569719300746,
        "Longitude(deg)": 80.86999578232576,
        "Mean Anomaly(deg)": 51.53223610670144,
        "RAAN(deg)": 144.98443689767583,
        "Satellite Name": "Starlink Shell 1 640",
        "Satellite Number": 640,
        "Semi-Major Axis(m)": 6931778.249405717,
        "Time(s)": 300
    },
    {
        "Altitude(m)": 556777.1400647509,
        "Argument of Periapsis(deg)": 0.010805932864848343,
        "Eccentricity": 0.0,
        "Inclination(deg)": 53.0,
        "Latitude(deg)": 39.23444589873123,
        "Longitude(deg)": 81.45133456311588,
        "Mean Anomaly(deg)": 52.159067310258166,
        "RAAN(deg)": 144.98391812759837,
        "Satellite Name": "Starlink Shell 1 640",
        "Satellite Number": 640,
        "Semi-Major Axis(m)": 6931778.249405717,
        "Time(s)": 310
    },
    {
        "Altitude(m)": 556860.4228706931,
        "Argument of Periapsis(deg)": 0.01115451134435958,
        "Eccentricity": 0.0,
        "Inclination(deg)": 53.0,
        "Latitude(deg)": 39.62980154616698,
        "Longitude(deg)": 82.03972393772396,
        "Mean Anomaly(deg)": 52.7858985138149,
        "RAAN(deg)": 144.98339935752088,
        "Satellite Name": "Starlink Shell 1 640",
        "Satellite Number": 640,
        "Semi-Major Axis(m)": 6931778.249405717,
        "Time(s)": 320
    },
    {
        "Altitude(m)": 556943.523438358,
        "Argument of Periapsis(deg)": 0.011503089823870818,
        "Eccentricity": 0.0,
        "Inclination(deg)": 53.0,
        "Latitude(deg)": 40.02167848535762,
        "Longitude(deg)": 82.63528307516054,
        "Mean Anomaly(deg)": 53.412729717371604,
        "RAAN(deg)": 144.98288058744342,
        "Satellite Name": "Starlink Shell 1 640",
        "Satellite Number": 640,
        "Semi-Major Axis(m)": 6931778.249405717,
        "Time(s)": 330
    },
    {
        "Altitude(m)": 557026.3878304282,
        "Argument of Periapsis(deg)": 0.011851668303382053,
        "Eccentricity": 0.0,
        "Inclination(deg)": 53.0,
        "Latitude(deg)": 40.40998924108603,
        "Longitude(deg)": 83.23812973255944,
        "Mean Anomaly(deg)": 54.0395609209283,
        "RAAN(deg)": 144.98236181736596,
        "Satellite Name": "Starlink Shell 1 640",
        "Satellite Number": 640,
        "Semi-Major Axis(m)": 6931778.249405717,
        "Time(s)": 340
    },
    {
        "Altitude(m)": 557108.9624401142,
        "Argument of Periapsis(deg)": 0.012200246782893292,
        "Eccentricity": 0.0,
        "Inclination(deg)": 53.0,
        "Latitude(deg)": 40.79464449901723,
        "Longitude(deg)": 83.84838052687792,
        "Mean Anomaly(deg)": 54.666392124485014,
        "RAAN(deg)": 144.98184304728846,
        "Satellite Name": "Starlink Shell 1 640",
        "Satellite Number": 640,
        "Semi-Major Axis(m)": 6931778.249405717,
        "Time(s)": 350
    },
    {
        "Altitude(m)": 557191.1940183406,
        "Argument of Periapsis(deg)": 0.012548825262404526,
        "Eccentricity": 0.0,
        "Inclination(deg)": 53.0,
        "Latitude(deg)": 41.17555309485726,
        "Longitude(deg)": 84.46615119038398,
        "Mean Anomaly(deg)": 55.29322332804171,
        "RAAN(deg)": 144.981324277211,
        "Satellite Name": "Starlink Shell 1 640",
        "Satellite Number": 640,
        "Semi-Major Axis(m)": 6931778.249405717,
        "Time(s)": 360
    },
    {
        "Altitude(m)": 557273.0297006911,
        "Argument of Periapsis(deg)": 0.012897403741915765,
        "Eccentricity": 0.0,
        "Inclination(deg)": 53.0,
        "Latitude(deg)": 41.55262200683291,
        "Longitude(deg)": 85.09155529653127,
        "Mean Anomaly(deg)": 55.92005453159848,
        "RAAN(deg)": 144.98080550713354,
        "Satellite Name": "Starlink Shell 1 640",
        "Satellite Number": 640,
        "Semi-Major Axis(m)": 6931778.249405717,
        "Time(s)": 370
    }
]